NORAD_CAT_ID,OBJECT_NAME,OBJECT_TYPE,EPOCH,MEAN_MOTION,ECCENTRICITY,INCLINATION,RA_OF_ASC_NODE,ARG_OF_PERICENTER,MEAN_ANOMALY,BSTAR,MEAN_MOTION_DOT,MEAN_MOTION_DDOT,TLE_LINE0,TLE_LINE1,TLE_LINE2,SEMIMAJOR_AXIS,PERIOD,APOGEE,PERIGEE,DECAYED
53866.0,STARLINK-4762,PAYLOAD,2023-10-14 04:04:01,15.0886367,0.0001434,53.2167,243.6656,96.7152,263.4004,0.00083928,0.00013103,0.0,0 STARLINK-4762,1 53866U 22114BA  23287.16945876  .00013103  00000-0  83928-3 0  9997,2 53866  53.2167 243.6656 0001434  96.7152 263.4004 15.08863670 60377,6917.808,95.436,540.665,538.681,0.0
53866.0,STARLINK-4762,PAYLOAD,2023-10-14 13:36:20,15.08856153,0.0001557,53.2174,241.8826,85.2747,274.8423,0.00045804,7.012e-05,0.0,0 STARLINK-4762,1 53866U 22114BA  23287.56689940  .00007012  00000-0  45804-3 0  9991,2 53866  53.2174 241.8826 0001557  85.2747 274.8423 15.08856153 60978,6917.831,95.437,540.773,538.619,0.0
53866.0,STARLINK-4762,PAYLOAD,2023-10-14 19:57:53,15.08840171,0.0002355,53.2159,240.6956,84.6204,275.5056,0.00023462,3.448e-05,0.0,0 STARLINK-4762,1 53866U 22114BA  23287.83186436  .00003448  00000-0  23462-3 0  9998,2 53866  53.2159 240.6956 0002355  84.6204 275.5056 15.08840171 60478,6917.88,95.438,541.374,538.116,0.0
53866.0,STARLINK-4762,PAYLOAD,2023-10-14 21:33:16,15.08836507,0.0002342,53.2176,240.3962,111.0934,249.0309,-0.00042326,-7.018e-05,0.0,0 STARLINK-4762,1 53866U 22114BA  23287.89810368 -.00007018  00000-0 -42326-3 0  9991,2 53866  53.2176 240.3962 0002342 111.0934 249.0309 15.08836507 61029,6917.891,95.438,541.376,538.136,0.0
53866.0,STARLINK-4762,PAYLOAD,2023-10-15 03:54:49,15.08824061,0.0001372,53.2163,239.2074,91.5562,268.5587,-0.0001195,-2.188e-05,0.0,0 STARLINK-4762,1 53866U 22114BA  23288.16306903 -.00002188  00000-0 -11950-3 0  9999,2 53866  53.2163 239.2074 0001372  91.5562 268.5587 15.08824061 60527,6917.929,95.439,540.743,538.845,0.0
53866.0,STARLINK-4762,PAYLOAD,2023-10-15 13:27:08,15.0883548,0.0001336,53.2163,237.4233,89.9579,270.1566,0.00031492,4.727e-05,0.0,0 STARLINK-4762,1 53866U 22114BA  23288.56051130  .00004727  00000-0  31492-3 0  9994,2 53866  53.2163 237.4233 0001336  89.9579 270.1566 15.08835480 61123,6917.894,95.438,540.683,538.835,0.0
53866.0,STARLINK-4762,PAYLOAD,2023-10-15 19:48:41,15.08838283,0.0001337,53.2165,236.2336,90.3043,269.8103,0.00099893,0.00015645,0.0,0 STARLINK-4762,1 53866U 22114BA  23288.82547484  .00015645  00000-0  99893-3 0  9995,2 53866  53.2165 236.2336 0001337  90.3043 269.8103 15.08838283 60629,6917.886,95.438,540.676,538.826,0.0
53866.0,STARLINK-4762,PAYLOAD,2023-10-16 03:45:36,15.08860795,0.0001267,53.2164,234.748,89.8767,270.237,0.0016321,0.00025797,0.0,0 STARLINK-4762,1 53866U 22114BA  23289.15667180  .00025797  00000-0  16321-2 0  9991,2 53866  53.2164 234.7480 0001267  89.8767 270.2370 15.08860795 60679,6917.817,95.436,540.558,538.805,0.0
53866.0,STARLINK-4762,PAYLOAD,2023-10-17 13:08:42,15.08852151,0.0002147,53.2161,228.5031,81.9349,278.1886,0.00059973,9.273e-05,0.0,0 STARLINK-4762,1 53866U 22114BA  23290.54771110  .00009273  00000-0  59973-3 0  9997,2 53866  53.2161 228.5031 0002147  81.9349 278.1886 15.08852151 61426,6917.843,95.437,541.194,538.223,0.0
53866.0,STARLINK-4762,PAYLOAD,2023-10-18 01:51:47,15.08842305,0.0001155,53.2158,226.125,103.3903,256.7218,0.00083777,0.00013071,0.0,0 STARLINK-4762,1 53866U 22114BA  23291.07762975  .00013071  00000-0  83777-3 0  9995,2 53866  53.2158 226.1250 0001155 103.3903 256.7218 15.08842305 61502,6917.873,95.437,540.537,538.939,0.0
53866.0,STARLINK-4762,PAYLOAD,2023-10-18 12:59:29,15.08833886,0.0001256,53.2147,224.0452,92.5623,267.5512,0.00029161,4.355e-05,0.0,0 STARLINK-4762,1 53866U 22114BA  23291.54131424  .00004355  00000-0  29161-3 0  9998,2 53866  53.2147 224.0452 0001256  92.5623 267.5512 15.08833886 61030,6917.899,95.438,540.633,538.895,0.0
53866.0,STARLINK-4762,PAYLOAD,2023-10-19 04:53:20,15.08873738,0.0001332,53.2154,221.0698,87.5031,272.6114,0.0026146,0.00041608,0.0,0 STARLINK-4762,1 53866U 22114BA  23292.20370993  .00041608  00000-0  26146-2 0  9999,2 53866  53.2154 221.0698 0001332  87.5031 272.6114 15.08873738 61135,6917.777,95.435,540.564,538.721,0.0
53866.0,STARLINK-4762,PAYLOAD,2023-10-19 19:11:48,15.08865349,9.77e-05,53.2151,218.3937,79.8859,280.2243,0.0016729,0.00026455,0.0,0 STARLINK-4762,1 53866U 22114BA  23292.79986862  .00026455  00000-0  16729-2 0  9990,2 53866  53.2151 218.3937 0000977  79.8859 280.2243 15.08865349 61220,6917.803,95.436,540.344,538.992,0.0
53866.0,STARLINK-4762,PAYLOAD,2023-10-20 01:33:20,15.08869791,9.96e-05,53.2156,217.2035,100.8711,259.2393,0.0019318,0.00030616,0.0,0 STARLINK-4762,1 53866U 22114BA  23293.06482527  .00030616  00000-0  19318-2 0  9991,2 53866  53.2156 217.2035 0000996 100.8711 259.2393 15.08869791 61806,6917.789,95.436,540.343,538.965,0.0
53866.0,STARLINK-4762,PAYLOAD,2023-10-20 19:02:36,15.08848096,0.0001723,53.2156,213.9325,100.8506,259.268,0.0019921,0.00031566,0.0,0 STARLINK-4762,1 53866U 22114BA  23293.79347434  .00031566  00000-0  19921-2 0  9993,2 53866  53.2156 213.9325 0001723 100.8506 259.2680 15.08848096 61378,6917.856,95.437,540.913,538.529,0.0
53866.0,STARLINK-4762,PAYLOAD,2023-10-20 22:13:22,15.08824139,0.0001332,53.2157,213.3376,81.7801,278.3342,0.001043,0.00016343,0.0,0 STARLINK-4762,1 53866U 22114BA  23293.92595524  .00016343  00000-0  10430-2 0  9995,2 53866  53.2157 213.3376 0001332  81.7801 278.3342 15.08824139 61931,6917.929,95.439,540.715,538.872,0.0
53866.0,STARLINK-4762,PAYLOAD,2023-10-21 01:24:09,15.08824712,0.0001375,53.2158,212.7428,91.8158,268.2992,0.0017285,0.00027317,0.0,0 STARLINK-4762,1 53866U 22114BA  23294.05843778  .00027317  00000-0  17285-2 0  9995,2 53866  53.2158 212.7428 0001375  91.8158 268.2992 15.08824712 61416,6917.927,95.439,540.743,538.841,0.0
53866.0,STARLINK-4762,PAYLOAD,2023-10-21 04:34:55,15.08833129,0.0001396,53.2159,212.1478,78.7046,281.4103,0.0017159,0.00027121,0.0,0 STARLINK-4762,1 53866U 22114BA  23294.19091945  .00027121  00000-0  17159-2 0  9994,2 53866  53.2159 212.1478 0001396  78.7046 281.4103 15.08833129 61973,6917.901,95.438,540.732,538.801,0.0
53866.0,STARLINK-4762,PAYLOAD,2023-10-21 22:04:09,15.08870492,0.000141,53.2164,208.8765,95.5414,264.5739,0.0014922,0.0002356,0.0,0 STARLINK-4762,1 53866U 22114BA  23294.91955037  .00023560  00000-0  14922-2 0  9993,2 53866  53.2164 208.8765 0001410  95.5414 264.5739 15.08870492 62087,6917.787,95.436,540.628,538.677,0.0
53866.0,STARLINK-4762,PAYLOAD,2023-10-22 04:25:40,15.08889552,0.0001349,53.2164,207.6875,83.4238,276.6908,0.0011966,0.00018833,0.0,0 STARLINK-4762,1 53866U 22114BA  23295.18450106  .00018833  00000-0  11966-2 0  9992,2 53866  53.2164 207.6875 0001349  83.4238 276.6908 15.08889552 61580,6917.729,95.434,540.527,538.661,0.0
53866.0,STARLINK-4762,PAYLOAD,2023-10-22 10:47:13,15.08857678,0.0002438,53.2168,206.4966,79.9344,280.1923,-0.00014117,-2.536e-05,0.0,0 STARLINK-4762,1 53866U 22114BA  23295.44946718 -.00002536  00000-0 -14117-3 0  9997,2 53866  53.2168 206.4966 0002438  79.9344 280.1923 15.08857678 61626,6917.826,95.436,541.378,538.005,0.0
53866.0,STARLINK-4762,PAYLOAD,2023-10-22 21:54:56,15.08813416,0.0001382,53.2161,204.4168,64.5027,295.6108,0.00055462,8.543e-05,0.0,0 STARLINK-4762,1 53866U 22114BA  23295.91315645  .00008543  00000-0  55462-3 0  9998,2 53866  53.2161 204.4168 0001382  64.5027 295.6108 15.08813416 62232,6917.962,95.439,540.783,538.871,0.0
53866.0,STARLINK-4762,PAYLOAD,2023-10-23 01:05:43,15.08816539,0.0001446,53.216,203.8228,69.9409,290.1739,0.0012319,0.00019359,0.0,0 STARLINK-4762,1 53866U 22114BA  23296.04563889  .00019359  00000-0  12319-2 0  9998,2 53866  53.2160 203.8228 0001446  69.9409 290.1739 15.08816539 61716,6917.952,95.439,540.817,538.817,0.0
53866.0,STARLINK-4762,PAYLOAD,2023-10-23 21:45:44,15.08851124,0.0001399,53.2157,199.9571,71.0208,289.0935,0.0015867,0.00025062,0.0,0 STARLINK-4762,1 53866U 22114BA  23296.90676393  .00025062  00000-0  15867-2 0  9997,2 53866  53.2157 199.9571 0001399  71.0208 289.0935 15.08851124 62384,6917.846,95.437,540.679,538.744,0.0
53866.0,STARLINK-4762,PAYLOAD,2023-10-24 04:07:16,15.08862617,0.0001405,53.2157,198.7683,74.2503,285.8644,0.0014481,0.00022848,0.0,0 STARLINK-4762,1 53866U 22114BA  23297.17172038  .00022848  00000-0  14481-2 0  9994,2 53866  53.2157 198.7683 0001405  74.2503 285.8644 15.08862617 61880,6917.811,95.436,540.648,538.704,0.0
53866.0,STARLINK-4762,PAYLOAD,2023-10-24 10:28:49,15.08846663,0.0001803,53.2154,197.5746,72.0672,288.0517,0.0012915,0.0002033,0.0,0 STARLINK-4762,1 53866U 22114BA  23297.43668140  .00020330  00000-0  12915-2 0  9991,2 53866  53.2154 197.5746 0001803  72.0672 288.0517 15.08846663 61921,6917.86,95.437,540.972,538.478,0.0
53866.0,STARLINK-4762,PAYLOAD,2023-10-25 21:27:18,15.08846239,0.0001975,53.2169,191.0364,64.8578,295.2618,7.43e-05,8.95e-06,0.0,0 STARLINK-4762,1 53866U 22114BA  23298.89395845  .00000895  00000-0  74300-4 0  9993,2 53866  53.2169 191.0364 0001975  64.8578 295.2618 15.08846239 62142,6917.861,95.437,541.093,538.36,0.0
53866.0,STARLINK-4762,PAYLOAD,2023-10-25 23:02:40,15.08850533,0.0001428,53.2163,190.739,90.3571,269.7584,0.00013511,1.864e-05,0.0,0 STARLINK-4762,1 53866U 22114BA  23298.96019453  .00001864  00000-0  13511-3 0  9992,2 53866  53.2163 190.7390 0001428  90.3571 269.7584 15.08850533 62691,6917.848,95.437,540.701,538.725,0.0
53866.0,STARLINK-4762,PAYLOAD,2023-10-26 02:13:26,15.08853238,0.0001485,53.2164,190.1443,90.8047,269.3115,0.00021219,3.092e-05,0.0,0 STARLINK-4762,1 53866U 22114BA  23299.09267316  .00003092  00000-0  21219-3 0  9999,2 53866  53.2164 190.1443 0001485  90.8047 269.3115 15.08853238 62175,6917.84,95.437,540.732,538.678,0.0
53866.0,STARLINK-4762,PAYLOAD,2023-10-26 22:53:27,15.08854971,0.0001737,53.2169,186.2774,81.9628,278.1561,0.00024137,3.557e-05,0.0,0 STARLINK-4762,1 53866U 22114BA  23299.95378935  .00003557  00000-0  24137-3 0  9992,2 53866  53.2169 186.2774 0001737  81.9628 278.1561 15.08854971 62841,6917.835,95.437,540.901,538.498,0.0
